[{"OBJECT_NAME":"STARLINK-35891","OBJECT_ID":"2025-294R","EPOCH":"2026-03-09T22:29:15.671616","MEAN_MOTION":15.27574617,"ECCENTRICITY":0.00015356,"INCLINATION":43.0028,"RA_OF_ASC_NODE":36.9623,"ARG_OF_PERICENTER":267.3111,"MEAN_ANOMALY":92.7565,"EPHEMERIS_TYPE":0,"CLASSIFICATION_TYPE":"U","NORAD_CAT_ID":67045,"ELEMENT_SET_NO":999,"REV_AT_EPOCH":1483,"BSTAR":0.0013632918,"MEAN_MOTION_DOT":0.00037437,"MEAN_MOTION_DDOT":0},{"OBJECT_NAME":"NOAA 17 DEB","OBJECT_ID":"2002-032AF","EPOCH":"2026-03-09T00:24:06.552000","MEAN_MOTION":15.25501717,"ECCENTRICITY":0.00030847,"INCLINATION":98.6472,"RA_OF_ASC_NODE":92.5947,"ARG_OF_PERICENTER":165.9893,"MEAN_ANOMALY":194.1428,"EPHEMERIS_TYPE":0,"CLASSIFICATION_TYPE":"U","NORAD_CAT_ID":48614,"ELEMENT_SET_NO":999,"REV_AT_EPOCH":26420,"BSTAR":0.01090047,"MEAN_MOTION_DOT":0.00286783,"MEAN_MOTION_DDOT":0}]
